[{"OBJECT_NAME":"LUCH-5A","OBJECT_ID":"2011-074B","EPOCH":"2026-04-27T02:34:38.741376","MEAN_MOTION":1.00273004,"ECCENTRICITY":0.0002752,"INCLINATION":8.6271,"RA_OF_ASC_NODE":74.5436,"ARG_OF_PERICENTER":305.3035,"MEAN_ANOMALY":40.8405,"EPHEMERIS_TYPE":0,"CLASSIFICATION_TYPE":"U","NORAD_CAT_ID":37951,"ELEMENT_SET_NO":999,"REV_AT_EPOCH":5253,"BSTAR":0,"MEAN_MOTION_DOT":-5.4e-7,"MEAN_MOTION_DDOT":0},{"OBJECT_NAME":"NIGCOMSAT 1R","OBJECT_ID":"2011-077A","EPOCH":"2026-04-27T04:48:38.757312","MEAN_MOTION":1.00275079,"ECCENTRICITY":0.0002419,"INCLINATION":0.0417,"RA_OF_ASC_NODE":95.7474,"ARG_OF_PERICENTER":250.3228,"MEAN_ANOMALY":343.7991,"EPHEMERIS_TYPE":0,"CLASSIFICATION_TYPE":"U","NORAD_CAT_ID":38014,"ELEMENT_SET_NO":999,"REV_AT_EPOCH":5244,"BSTAR":0,"MEAN_MOTION_DOT":1.34e-6,"MEAN_MOTION_DDOT":0},{"OBJECT_NAME":"WGS F4 (USA 233)","OBJECT_ID":"2012-003A","EPOCH":"2026-04-26T23:58:19.744032","MEAN_MOTION":1.0027063,"ECCENTRICITY":3.1e-5,"INCLINATION":0.0176,"RA_OF_ASC_NODE":223.444,"ARG_OF_PERICENTER":95.0673,"MEAN_ANOMALY":344.4596,"EPHEMERIS_TYPE":0,"CLASSIFICATION_TYPE":"U","NORAD_CAT_ID":38070,"ELEMENT_SET_NO":999,"REV_AT_EPOCH":4363,"BSTAR":0,"MEAN_MOTION_DOT":-2.25e-6,"MEAN_MOTION_DDOT":0},{"OBJECT_NAME":"SES-4","OBJECT_ID":"2012-007A","EPOCH":"2026-04-27T01:56:38.566752","MEAN_MOTION":1.00272338,"ECCENTRICITY":0.0002627,"INCLINATION":0.0218,"RA_OF_ASC_NODE":37.9837,"ARG_OF_PERICENTER":18.1025,"MEAN_ANOMALY":166.1663,"EPHEMERIS_TYPE":0,"CLASSIFICATION_TYPE":"U","NORAD_CAT_ID":38087,"ELEMENT_SET_NO":999,"REV_AT_EPOCH":5171,"BSTAR":0,"MEAN_MOTION_DOT":-1.78e-6,"MEAN_MOTION_DDOT":0},{"OBJECT_NAME":"BEIDOU-2 G5","OBJECT_ID":"2012-008A","EPOCH":"2026-04-27T01:49:31.715328","MEAN_MOTION":1.0027321,"ECCENTRICITY":0.0012264,"INCLINATION":3.4486,"RA_OF_ASC_NODE":69.9855,"ARG_OF_PERICENTER":266.1896,"MEAN_ANOMALY":325.0169,"EPHEMERIS_TYPE":0,"CLASSIFICATION_TYPE":"U","NORAD_CAT_ID":38091,"ELEMENT_SET_NO":999,"REV_AT_EPOCH":5185,"BSTAR":0,"MEAN_MOTION_DOT":4.9e-7,"MEAN_MOTION_DDOT":0},{"OBJECT_NAME":"INTELSAT 22 (IS-22)","OBJECT_ID":"2012-011A","EPOCH":"2026-04-27T01:59:09.598272","MEAN_MOTION":1.00270693,"ECCENTRICITY":0.000176,"INCLINATION":0.0221,"RA_OF_ASC_NODE":106.9851,"ARG_OF_PERICENTER":294.0083,"MEAN_ANOMALY":275.9693,"EPHEMERIS_TYPE":0,"CLASSIFICATION_TYPE":"U","NORAD_CAT_ID":38098,"ELEMENT_SET_NO":999,"REV_AT_EPOCH":667,"BSTAR":0,"MEAN_MOTION_DOT":-6.9e-7,"MEAN_MOTION_DDOT":0},{"OBJECT_NAME":"COSMOS 2479","OBJECT_ID":"2012-012A","EPOCH":"2026-04-26T23:58:27.367104","MEAN_MOTION":1.00363147,"ECCENTRICITY":0.000585,"INCLINATION":8.7351,"RA_OF_ASC_NODE":56.8505,"ARG_OF_PERICENTER":247.0732,"MEAN_ANOMALY":300.0872,"EPHEMERIS_TYPE":0,"CLASSIFICATION_TYPE":"U","NORAD_CAT_ID":38101,"ELEMENT_SET_NO":999,"REV_AT_EPOCH":5157,"BSTAR":0,"MEAN_MOTION_DOT":1.4e-6,"MEAN_MOTION_DDOT":0},{"OBJECT_NAME":"SL-12 R/B(2)","OBJECT_ID":"2012-012D","EPOCH":"2026-04-27T03:59:12.029280","MEAN_MOTION":1.00347327,"ECCENTRICITY":0.0012666,"INCLINATION":8.7243,"RA_OF_ASC_NODE":57.0555,"ARG_OF_PERICENTER":302.4238,"MEAN_ANOMALY":121.0628,"EPHEMERIS_TYPE":0,"CLASSIFICATION_TYPE":"U","NORAD_CAT_ID":38104,"ELEMENT_SET_NO":999,"REV_AT_EPOCH":5155,"BSTAR":0,"MEAN_MOTION_DOT":1.21e-6,"MEAN_MOTION_DDOT":0},{"OBJECT_NAME":"APSTAR-7","OBJECT_ID":"2012-013A","EPOCH":"2026-04-27T01:49:21.828576","MEAN_MOTION":1.00271343,"ECCENTRICITY":0.0002998,"INCLINATION":0.0419,"RA_OF_ASC_NODE":58.7537,"ARG_OF_PERICENTER":354.0151,"MEAN_ANOMALY":266.1344,"EPHEMERIS_TYPE":0,"CLASSIFICATION_TYPE":"U","NORAD_CAT_ID":38107,"ELEMENT_SET_NO":999,"REV_AT_EPOCH":5129,"BSTAR":0,"MEAN_MOTION_DOT":-1.12e-6,"MEAN_MOTION_DDOT":0},{"OBJECT_NAME":"YAHSAT 1B","OBJECT_ID":"2012-016A","EPOCH":"2026-04-27T04:48:38.757312","MEAN_MOTION":1.00270624,"ECCENTRICITY":0.0002545,"INCLINATION":0.0856,"RA_OF_ASC_NODE":86.3207,"ARG_OF_PERICENTER":318.0221,"MEAN_ANOMALY":290.6162,"EPHEMERIS_TYPE":0,"CLASSIFICATION_TYPE":"U","NORAD_CAT_ID":38245,"ELEMENT_SET_NO":999,"REV_AT_EPOCH":4509,"BSTAR":0,"MEAN_MOTION_DOT":1.16e-6,"MEAN_MOTION_DDOT":0},{"OBJECT_NAME":"AEHF-2 (USA 235)","OBJECT_ID":"2012-019A","EPOCH":"2026-04-26T15:12:01.128096","MEAN_MOTION":1.00273042,"ECCENTRICITY":0.00022022,"INCLINATION":6.5325,"RA_OF_ASC_NODE":57.8568,"ARG_OF_PERICENTER":317.9458,"MEAN_ANOMALY":50.3181,"EPHEMERIS_TYPE":0,"CLASSIFICATION_TYPE":"U","NORAD_CAT_ID":38254,"ELEMENT_SET_NO":999,"REV_AT_EPOCH":647,"BSTAR":0,"MEAN_MOTION_DOT":-1.43e-6,"MEAN_MOTION_DDOT":0},{"OBJECT_NAME":"JCSAT-13","OBJECT_ID":"2012-023A","EPOCH":"2026-04-27T00:25:24.782016","MEAN_MOTION":1.00273008,"ECCENTRICITY":0.0002393,"INCLINATION":0.024,"RA_OF_ASC_NODE":69.5097,"ARG_OF_PERICENTER":337.5205,"MEAN_ANOMALY":298.3423,"EPHEMERIS_TYPE":0,"CLASSIFICATION_TYPE":"U","NORAD_CAT_ID":38331,"ELEMENT_SET_NO":999,"REV_AT_EPOCH":5102,"BSTAR":0,"MEAN_MOTION_DOT":-3.67e-6,"MEAN_MOTION_DDOT":0},{"OBJECT_NAME":"VINASAT-2","OBJECT_ID":"2012-023B","EPOCH":"2026-04-26T22:45:04.405824","MEAN_MOTION":1.00268233,"ECCENTRICITY":0.000283,"INCLINATION":0.0129,"RA_OF_ASC_NODE":58.1984,"ARG_OF_PERICENTER":357.0656,"MEAN_ANOMALY":272.7972,"EPHEMERIS_TYPE":0,"CLASSIFICATION_TYPE":"U","NORAD_CAT_ID":38332,"ELEMENT_SET_NO":999,"REV_AT_EPOCH":4614,"BSTAR":0,"MEAN_MOTION_DOT":0,"MEAN_MOTION_DDOT":0},{"OBJECT_NAME":"NIMIQ 6","OBJECT_ID":"2012-026A","EPOCH":"2026-04-27T04:51:38.611008","MEAN_MOTION":1.00271824,"ECCENTRICITY":0.0002569,"INCLINATION":0.0655,"RA_OF_ASC_NODE":77.0089,"ARG_OF_PERICENTER":314.196,"MEAN_ANOMALY":165.7984,"EPHEMERIS_TYPE":0,"CLASSIFICATION_TYPE":"U","NORAD_CAT_ID":38342,"ELEMENT_SET_NO":999,"REV_AT_EPOCH":4990,"BSTAR":0,"MEAN_MOTION_DOT":-1.84e-6,"MEAN_MOTION_DDOT":0},{"OBJECT_NAME":"ZHONGXING-2A","OBJECT_ID":"2012-028A","EPOCH":"2026-04-27T04:46:21.775296","MEAN_MOTION":1.0027251,"ECCENTRICITY":0.0001811,"INCLINATION":1.3242,"RA_OF_ASC_NODE":84.4939,"ARG_OF_PERICENTER":29.2422,"MEAN_ANOMALY":271.2872,"EPHEMERIS_TYPE":0,"CLASSIFICATION_TYPE":"U","NORAD_CAT_ID":38352,"ELEMENT_SET_NO":999,"REV_AT_EPOCH":5078,"BSTAR":0,"MEAN_MOTION_DOT":-3.02e-6,"MEAN_MOTION_DDOT":0},{"OBJECT_NAME":"INTELSAT 19 (IS-19)","OBJECT_ID":"2012-030A","EPOCH":"2026-04-27T02:42:38.699424","MEAN_MOTION":1.00272183,"ECCENTRICITY":0.0003105,"INCLINATION":0.0209,"RA_OF_ASC_NODE":261.1108,"ARG_OF_PERICENTER":134.7004,"MEAN_ANOMALY":25.9526,"EPHEMERIS_TYPE":0,"CLASSIFICATION_TYPE":"U","NORAD_CAT_ID":38356,"ELEMENT_SET_NO":999,"REV_AT_EPOCH":4993,"BSTAR":0,"MEAN_MOTION_DOT":-6.7e-7,"MEAN_MOTION_DDOT":0},{"OBJECT_NAME":"ECHOSTAR 17","OBJECT_ID":"2012-035A","EPOCH":"2026-04-27T03:38:38.455008","MEAN_MOTION":1.00269617,"ECCENTRICITY":0.0002198,"INCLINATION":0.0157,"RA_OF_ASC_NODE":230.8322,"ARG_OF_PERICENTER":171.5958,"MEAN_ANOMALY":120.2761,"EPHEMERIS_TYPE":0,"CLASSIFICATION_TYPE":"U","NORAD_CAT_ID":38551,"ELEMENT_SET_NO":999,"REV_AT_EPOCH":5055,"BSTAR":0,"MEAN_MOTION_DOT":0,"MEAN_MOTION_DDOT":0}]
